NORAD_CAT_ID,OBJECT_NAME,OBJECT_TYPE,EPOCH,MEAN_MOTION,ECCENTRICITY,INCLINATION,RA_OF_ASC_NODE,ARG_OF_PERICENTER,MEAN_ANOMALY,BSTAR,MEAN_MOTION_DOT,MEAN_MOTION_DDOT,TLE_LINE0,TLE_LINE1,TLE_LINE2,SEMIMAJOR_AXIS,PERIOD,APOGEE,PERIGEE,DECAYED
52473.0,STARLINK-3879,PAYLOAD,2023-02-18 21:25:08,15.0885144,7.96e-05,53.216,23.6462,70.2967,289.8111,0.00087911,0.00013735,0.0,0 STARLINK-3879,1 52473U 22049Y   23049.89245405  .00013735  00000-0  87911-3 0  9991,2 52473  53.2160  23.6462 0000796  70.2967 289.8111 15.08851440 44112,6917.845,95.437,540.261,539.16,0.0
52473.0,STARLINK-3879,PAYLOAD,2023-02-19 05:22:02,15.08876598,7.59e-05,53.2157,22.1593,73.34,286.7676,0.0013059,0.00020577,0.0,0 STARLINK-3879,1 52473U 22049Y   23050.22364479  .00020577  00000-0  13059-2 0  9996,2 52473  53.2157  22.1593 0000759  73.3400 286.7676 15.08876598 44160,6917.769,95.435,540.159,539.108,0.0
52473.0,STARLINK-3879,PAYLOAD,2023-02-19 08:32:48,15.08883797,7.43e-05,53.2157,21.5649,73.3258,286.7816,0.0013642,0.00021516,0.0,0 STARLINK-3879,1 52473U 22049Y   23050.35612106  .00021516  00000-0  13642-2 0  9995,2 52473  53.2157  21.5649 0000743  73.3258 286.7816 15.08883797 44029,6917.747,95.435,540.126,539.098,0.0
52473.0,STARLINK-3879,PAYLOAD,2023-02-19 14:54:21,15.08857542,1.14e-05,53.2165,20.3751,104.9667,255.1338,9.3546e-05,1.202e-05,0.0,0 STARLINK-3879,1 52473U 22049Y   23050.62108070  .00001202  00000-0  93546-4 0  9998,2 52473  53.2165  20.3751 0000114 104.9667 255.1338 15.08857542 44226,6917.827,95.436,539.771,539.613,0.0
52473.0,STARLINK-3879,PAYLOAD,2023-02-20 05:12:50,15.08840556,0.000125,53.2164,17.6993,81.9256,278.1878,0.00058024,8.959e-05,0.0,0 STARLINK-3879,1 52473U 22049Y   23051.21724548  .00008959  00000-0  58024-3 0  9995,2 52473  53.2164  17.6993 0001250  81.9256 278.1878 15.08840556 44313,6917.879,95.438,540.608,538.879,0.0
52473.0,STARLINK-3879,PAYLOAD,2023-02-20 09:58:59,15.08854252,0.0001161,53.2157,16.8056,80.5681,279.5442,0.0005046,7.755e-05,0.0,0 STARLINK-3879,1 52473U 22049Y   23051.41596206  .00007755  00000-0  50460-3 0  9994,2 52473  53.2157  16.8056 0001161  80.5681 279.5442 15.08854252 44189,6917.837,95.437,540.505,538.899,0.0
52473.0,STARLINK-3879,PAYLOAD,2023-02-20 14:45:09,15.08830102,0.0001105,53.2157,15.9144,86.8261,273.2858,3.0992e-05,2.05e-06,0.0,0 STARLINK-3879,1 52473U 22049Y   23051.61468832  .00000205  00000-0  30992-4 0  9991,2 52473  53.2157  15.9144 0001105  86.8261 273.2858 15.08830102 44379,6917.911,95.438,540.54,539.011,0.0
52473.0,STARLINK-3879,PAYLOAD,2023-02-21 05:03:37,15.0885073,0.0001045,53.2162,13.239,80.9962,279.1148,0.0019552,0.00030975,0.0,0 STARLINK-3879,1 52473U 22049Y   23052.21084923  .00030975  00000-0  19552-2 0  9997,2 52473  53.2162  13.2390 0001045  80.9962 279.1148 15.08850730 44461,6917.848,95.437,540.436,538.99,0.0
52473.0,STARLINK-3879,PAYLOAD,2023-02-21 14:35:56,15.08857067,0.0001054,53.216,11.4547,81.358,278.7532,0.0013859,0.00021848,0.0,0 STARLINK-3879,1 52473U 22049Y   23052.60828787  .00021848  00000-0  13859-2 0  9997,2 52473  53.2160  11.4547 0001054  81.3580 278.7532 15.08857067 44523,6917.828,95.436,540.422,538.964,0.0
52473.0,STARLINK-3879,PAYLOAD,2023-02-21 20:57:28,15.08850959,0.0001221,53.2168,10.2658,90.5574,269.5558,0.00082775,0.00012914,0.0,0 STARLINK-3879,1 52473U 22049Y   23052.87324755  .00012914  00000-0  82775-3 0  9990,2 52473  53.2168  10.2658 0001221  90.5574 269.5558 15.08850959 44408,6917.847,95.437,540.557,538.867,0.0
52473.0,STARLINK-3879,PAYLOAD,2023-02-22 03:19:00,15.08864987,0.0001166,53.2156,9.0756,94.5058,265.6067,0.00099161,0.00015539,0.0,0 STARLINK-3879,1 52473U 22049Y   23053.13820276  .00015539  00000-0  99161-3 0  9992,2 52473  53.2156   9.0756 0001166  94.5058 265.6067 15.08864987 44609,6917.804,95.436,540.476,538.862,0.0
52473.0,STARLINK-3879,PAYLOAD,2023-02-22 06:29:46,15.08870272,0.0001242,53.2158,8.4803,96.425,263.6883,0.0010183,0.00015969,0.0,0 STARLINK-3879,1 52473U 22049Y   23053.27067972  .00015969  00000-0  10183-2 0  9996,2 52473  53.2158   8.4803 0001242  96.4250 263.6883 15.08870272 44469,6917.788,95.436,540.512,538.794,0.0
52473.0,STARLINK-3879,PAYLOAD,2023-02-23 03:09:48,15.08829522,7.77e-05,53.2167,4.6181,62.3102,297.7969,0.00012749,1.741e-05,0.0,0 STARLINK-3879,1 52473U 22049Y   23054.13181223  .00001741  00000-0  12749-3 0  9992,2 52473  53.2167   4.6181 0000777  62.3102 297.7969 15.08829522 44753,6917.912,95.438,540.315,539.24,0.0
52473.0,STARLINK-3879,PAYLOAD,2023-02-23 23:49:49,15.08858502,7.27e-05,53.2163,0.749,75.7887,284.3186,0.0011457,0.00018002,0.0,0 STARLINK-3879,1 52473U 22049Y   23054.99293083  .00018002  00000-0  11457-2 0  9996,2 52473  53.2163   0.7490 0000727  75.7887 284.3186 15.08858502 44889,6917.824,95.436,540.192,539.186,0.0
52473.0,STARLINK-3879,PAYLOAD,2023-02-24 06:11:21,15.08879729,7.89e-05,53.2168,359.5586,85.1714,274.9368,0.0015283,0.00024145,0.0,0 STARLINK-3879,1 52473U 22049Y   23055.25788350  .00024145  00000-0  15283-2 0  9998,2 52473  53.2168 359.5586 0000789  85.1714 274.9368 15.08879729 44765,6917.759,95.435,540.17,539.078,0.0
52473.0,STARLINK-3879,PAYLOAD,2023-02-24 20:29:49,15.08839898,4.85e-05,53.2172,356.8832,64.9751,295.1291,0.00053393,8.22e-05,0.0,0 STARLINK-3879,1 52473U 22049Y   23055.85404903  .00008220  00000-0  53393-3 0  9994,2 52473  53.2172 356.8832 0000485  64.9751 295.1291 15.08839898 45015,6917.881,95.438,540.081,539.41,0.0
52473.0,STARLINK-3879,PAYLOAD,2023-02-25 02:51:22,15.08842893,5.5e-05,53.2171,355.6942,87.9531,272.1524,0.0011552,0.00018146,0.0,0 STARLINK-3879,1 52473U 22049Y   23056.11900907  .00018146  00000-0  11552-2 0  9997,2 52473  53.2171 355.6942 0000550  87.9531 272.1524 15.08842893 44895,6917.872,95.437,540.117,539.356,0.0
52473.0,STARLINK-3879,PAYLOAD,2023-02-26 05:52:55,15.08864851,7.39e-05,53.2164,350.6388,85.9061,274.2016,0.0014601,0.00023042,0.0,0 STARLINK-3879,1 52473U 22049Y   23057.24508866  .00023042  00000-0  14601-2 0  9999,2 52473  53.2164 350.6388 0000739  85.9061 274.2016 15.08864851 45226,6917.804,95.436,540.181,539.158,0.0
52473.0,STARLINK-3879,PAYLOAD,2023-02-26 20:11:23,15.08846963,8.66e-05,53.216,347.9636,111.4452,248.6632,0.0010324,0.00016184,0.0,0 STARLINK-3879,1 52473U 22049Y   23057.84124993  .00016184  00000-0  10324-2 0  9997,2 52473  53.2160 347.9636 0000866 111.4452 248.6632 15.08846963 45310,6917.859,95.437,540.323,539.125,0.0
52473.0,STARLINK-3879,PAYLOAD,2023-02-26 23:22:09,15.0886998,8.03e-05,53.2164,347.3685,123.3706,236.7363,0.0017507,0.00027707,0.0,0 STARLINK-3879,1 52473U 22049Y   23057.97372573  .00027707  00000-0  17507-2 0  9993,2 52473  53.2164 347.3685 0000803 123.3706 236.7363 15.08869980 45332,6917.789,95.436,540.209,539.098,0.0
52473.0,STARLINK-3879,PAYLOAD,2023-02-27 02:32:55,15.08887426,8.79e-05,53.2164,346.774,114.9728,245.1355,0.0024694,0.00039283,0.0,0 STARLINK-3879,1 52473U 22049Y   23058.10620283  .00039283  00000-0  24694-2 0  9990,2 52473  53.2164 346.7740 0000879 114.9728 245.1355 15.08887426 45352,6917.735,95.435,540.208,538.992,0.0
52473.0,STARLINK-3879,PAYLOAD,2023-02-27 18:26:46,15.08948953,0.0001182,53.216,343.7998,104.3049,255.8075,0.0064282,0.00103837,0.0,0 STARLINK-3879,1 52473U 22049Y   23058.76859038  .00103837  00000-0  64282-2 0  9998,2 52473  53.2160 343.7998 0001182 104.3049 255.8075 15.08948953 45290,6917.547,95.431,540.23,538.595,0.0
52473.0,STARLINK-3879,PAYLOAD,2023-02-28 03:59:04,15.08903076,0.0001032,53.2149,342.0132,89.6293,270.4817,0.0016598,0.00026272,0.0,0 STARLINK-3879,1 52473U 22049Y   23059.16601904  .00026272  00000-0  16598-2 0  9994,2 52473  53.2149 342.0132 0001032  89.6293 270.4817 15.08903076 45518,6917.688,95.434,540.267,538.839,0.0
52473.0,STARLINK-3879,PAYLOAD,2023-02-28 23:03:44,15.08781113,0.0001269,53.2164,338.4458,104.596,255.5173,0.00073245,0.0001137,0.0,0 STARLINK-3879,1 52473U 22049Y   23059.96093372  .00011370  00000-0  73245-3 0  9992,2 52473  53.2164 338.4458 0001269 104.5960 255.5173 15.08781113 45633,6918.06,95.441,540.803,539.047,0.0
52473.0,STARLINK-3879,PAYLOAD,2023-03-01 07:00:41,15.08789789,0.0001607,53.2167,336.9598,84.867,275.2506,0.00022622,3.309e-05,0.0,0 STARLINK-3879,1 52473U 22049Y   23060.29214664  .00003309  00000-0  22622-3 0  9995,2 52473  53.2167 336.9598 0001607  84.8670 275.2506 15.08789789 45522,6918.034,95.441,541.011,538.787,0.0
52473.0,STARLINK-3879,PAYLOAD,2023-03-02 03:40:42,15.08848348,0.0001629,53.2154,333.0924,85.8919,274.226,0.0015194,0.00023982,0.0,0 STARLINK-3879,1 52473U 22049Y   23061.15327533  .00023982  00000-0  15194-2 0  9995,2 52473  53.2154 333.0924 0001629  85.8919 274.2260 15.08848348 45815,6917.855,95.437,540.847,538.593,0.0
52473.0,STARLINK-3879,PAYLOAD,2023-03-02 17:59:10,15.08876691,0.0001558,53.2143,330.414,90.301,269.816,0.0016055,0.00025382,0.0,0 STARLINK-3879,1 52473U 22049Y   23061.74942669  .00025382  00000-0  16055-2 0  9996,2 52473  53.2143 330.4140 0001558  90.3010 269.8160 15.08876691 45741,6917.768,95.435,540.711,538.555,0.0
52473.0,STARLINK-3879,PAYLOAD,2023-03-03 00:20:42,15.08894664,0.0001571,53.2148,329.2249,90.4605,269.6567,0.0019553,0.00031015,0.0,0 STARLINK-3879,1 52473U 22049Y   23062.01437822  .00031015  00000-0  19553-2 0  9993,2 52473  53.2148 329.2249 0001571  90.4605 269.6567 15.08894664 45781,6917.713,95.434,540.665,538.492,0.0
52473.0,STARLINK-3879,PAYLOAD,2023-03-03 21:00:41,15.08890226,0.0001393,53.215,325.3582,118.7685,241.3447,0.0020099,0.00031889,0.0,0 STARLINK-3879,1 52473U 22049Y   23062.87548295  .00031889  00000-0  20099-2 0  9990,2 52473  53.2150 325.3582 0001393 118.7685 241.3447 15.08890226 45914,6917.727,95.434,540.556,538.628,0.0
52473.0,STARLINK-3879,PAYLOAD,2023-03-04 00:11:27,15.08884767,0.0001054,53.2157,324.765,67.7914,292.319,0.0018612,0.00029494,0.0,0 STARLINK-3879,1 52473U 22049Y   23063.00796129  .00029494  00000-0  18612-2 0  9994,2 52473  53.2157 324.7650 0001054  67.7914 292.3190 15.08884767 46096,6917.744,95.435,540.338,538.879,0.0
